Network;Name;ShortName;Address;State;ZipCode;City;Country;CONTACT
Front Office;As Good as Grass;ASG;28381 Rancho de Linda ;CA;92677;laguna niguel;USA;(732) 263-0151
Front Office;Premier Carpets & Flooring;PCF;1820 Woodbrook Cir;NJ;07740;Long Branch;USA;(575) 622-3491
Front Office;Cook's Appliance Repar Service;COO;407 Sarah Dr;NJ;07921;Bedminster;USA;(270) 522-9957
Front Office;GE Appliance Services;GE;15295 Callaway Ct;KS;66109;Kansas City;USA;(913) 721-3708
Front Office;Miller's Construction;MIL;2725 Walbrook Ave,;FL;32219;Jacksonville;USA;(307) 633-4383
Front Office;ASH grove True Value Home Center;ASH;44693 White Oak CT;KS;66109;Kansas City;USA;(301) 253-6425
Front Office;Capital Mortgage Finance;CAP;3911 Mewswood Ln;KY;42211;Cadiz;USA;(775) 747-2706
Front Office;Industry Iron Works LLC;IIW;136 E South St;MD;21738;Glenwood;USA;(904) 768-4101
Front Office;Three Brothers Italian Restaurant;TBI;10840 Sir Barton Cir;NJ;07740;Long Branch;USA;(913) 721-3708
Front Office;At Home Care Inc.;AHC;320 Conestoga Way Apt 4105;WY;82001;Cheyenne;USA;(732) 263-0151
Front Office;Sears Garage Doors & Openers;SGD;633 Holly Bush Ct;WY;82930;Evanston;USA;(843) 572-8779
Front Office;Flowers.com;FLO;9820 Russett Wood Cir;WI;53204;Milwaukee;USA;(937) 322-8500
Front Office;Petsmart;PET;108 Columbia Ave;VA;23602;Newport News;USA;(414) 760-3060
Front Office;Empire Milk Distributor;EMP;10029 Garden Lake Ct;OH;45505;Springfield;USA;(702) 456-4913
Front Office;Woodman Tree Transport;WOO;1 Knollwood Ct;NM;88203;Roswell;USA;(949) 495-1032
Front Office;Bishop Bus Services;BIS;60 Academy Ct;MD;20872;Damascus;USA;(307) 633-4383
Front Office;Party Cloths;PART;94 Watson Dr;NV;89002;Henderson;USA;(410) 442-4038
Front Office;Angie's Shoes Inc.;ANG;2024 Emery St;NV;89523;Reno;USA;(205) 664-5884
Front Office;Brian'scatering Services;BS;1873 Marlton Pike E,;SC;29445;Goose Creek;USA;(732) 263-0151
Front Office;Cookies & Milk;CM;2373 Brockton Way;AL;35007;Alabaster;USA;(908) 903-1332
