Network;Name;ShortName;Address;State;ZipCode;City;Country;CONTACT
Front Office;As Good as Grass;ASG;2321 Rue Saint-Adrien;QC;G7S4A8;Jonquieres;CAN;(514) 989-7674      
Front Office;Premier Carpets & Flooring;PCF;187 Merrill Ave E;ON;M4C 1C6;Toronto;CAN;(905) 457-0759      
Front Office;Cook's Appliance Repar Service;COO;628 Louth St;;L2S 3X2;St Catharine;CAN;(705) 594-1332      
Front Office;GE Appliance Services;GE;120 Nottingham Dr; NB;;Rothesay;CAN;(506) 216-5291      
Front Office;Miller's Construction;MIL;2164 Country Club Dr;ON;L7M 4H4;Burlington;CAN;(905) 331-4545      
Front Office;ASH grove True Value Home Center;ASH;2 Bridgeview Dr;NS;B3P 0A1;Halifax;CAN;(902) 422-9037      
Front Office;Capital Mortgage Finance;CAP;30 Uplands Rd;NL;NL A1W 4T8;Conception Bay South;CAN;(709) 834-5970      
Front Office;Industry Iron Works LLC;IIW;570 2nd St;SK;S4A 2B3;Estevan;CAN;(306) 636-2395      
Front Office;Three Brothers Italian Restaurant;TBI;25025 th Apt 110 Ave;ON;N4N 2S9;Hanover;CAN;(519) 364-6730      
Front Office;At Home Care Inc.;AHC;55 Dell Rd;BC; V1X 3P7;Kelowna;CAN;(250) 868-3438      
Front Office;Sears Garage Doors & Openers;SGD;300 Crichton St;ON; K1M1W5;Ottawa;CAN;(613) 740-1707      
Front Office;Flowers.com;FLO;80 23 St N;AB;T1H 3S8;Lethbridge;CAN;(403) 327-3142      
Front Office;Petsmart;PET;1347 Stonepath Cres;ON;L4X 1Y1;Mississauga;CAN;905) 274-6240      
Front Office;Empire Milk Distributor;EMP;95 Rue Guy;QC; H3J 1T4;Montréal;CAN;(514) 989-7714      
Front Office;Woodman Tree Transport;WOO;2071 Bellevue Ave, West ;BC;V7V1A6;Vancouver;CAN;604-922-7632      
Front Office;Bishop Bus Services;BIS;1752 Argue St 24;BC;V3C 6P5;Port Coquitlam;CAN;(604) 944-0885      
Front Office;Party Cloths;PART;50 Louisville Rd;NS;;River John;CAN;(902) 351-2556      
Front Office;Angie's Shoes Inc.;ANG;355 Maliseet Dr;NB;E3A 5R7;Fredericton;CAN;(506) 455-7347      
Front Office;Brian'scatering Services;BS;25 Hoskins Rd;NB;;Woodstock;CAN;(506) 455-5747      
Front Office;Cookies & Milk;CM;3 Girdwood Cres;MB; R2K 3T6;Winnipeg;CAN; (204) 661-5463      
