Name;Short Name;ID;Stratus;Address;State;ZipCode;City;Country;Phone;contactdes ;Contact Name
GEICO Insurance;GEICO;10000145;Active;31 Knollwood Ct;NJ;7740;Long Branch;UNITED STATES;(732) 263-0121;Customer Services ;GEICO Insurance
American Family Insurance;AFN;10000146;Active;109 Garden Lake Ct;NM;88203;Roswell;UNITED STATES;(575) 622-3591;Customer Services ;American Family Insurance
NACORA Insurance Broker;NIBR;10000147;Active;18 Columbia Ave;KY;42211;Cadiz;UNITED STATES;(270) 522-9857;Customer Services ;NACORA Insurance Broker
Northeast Insurance Brokers LTD;NIBLTD;10000148;Active;1840 Sir Barton Cir;KS;66109;Kansas City;UNITED STATES;(913) 721-3208;Customer Services ;Northeast Insurance Brokers LTD
First Brokers Insurance;FBI;10000149;Active;1363 E South St;VA;23602;Newport News;UNITED STATES;(307) 633-4323;Customer Services ;First Brokers Insurance
Mackley Insurance;MAIN;10000150;Active;1295 Callaway Ct;MD;20872;Damascus;UNITED STATES;(301) 253-6225;Customer Services ;Mackley Insurance
Miramar Insurance;MIRIN;10000151;Active;120 Woodbrook Cir;NV;89523;Reno;UNITED STATES;(775) 747-2206;Customer Services ;Miramar Insurance
Allstate New Jersey Insurance Company;ALLNJIC;10000152;Active;173 Marlton Pike E,;FL;32219;Jacksonville;UNITED STATES;(904) 768-4201;Customer Services ;Allstate New Jersey Insurance Company
Mccarthy-Hillside Insurance;MCHIIN;10000153;Active;204 Emery St;KS;66109;Kansas City;UNITED STATES;(913) 721-3208;Customer Services ;Mccarthy-Hillside Insurance
Nationwide Insurance;NATINS;10000154;Active;23 Brockton Way;WY;82930;Evanston;UNITED STATES;(732) 263-0251;Customer Services ;Nationwide Insurance
Hanover Insurance;HNOINS;10000155;Active;325 Walbrook Ave,;SC;29445;Goose Creek;UNITED STATES;(843) 572-8279;Customer Services ;Hanover Insurance
Abco Insurance Brokers Bruce E Nownes Insurance;AIBBNI;10000156;Active;28381 Rancho de Linda ;OH;45505;Springfield;UNITED STATES;(937) 322-8520;Customer Services ;Abco Insurance Brokers Bruce E Nownes Insurance
Dld Insurance Brokers;DIB;10000157;Active;320 Conestoga Way Apt 4105;WI;53204;Milwaukee;UNITED STATES;(414) 760-3020;Customer Services ;Dld Insurance Brokers
Lockton Insurance Brokers;LIB;10000158;Active;3911 Mewswood Ln;NV;89002;Henderson;UNITED STATES;(702) 456-4923;Customer Services ;Lockton Insurance Brokers
American Insurance Brokers;AIB;10000159;Active;407 Sarah Dr;CA;92677;laguna niguel;UNITED STATES;(949) 495-1022;Customer Services ;American Insurance Brokers
Allstate Insurance Company;ALLINSC;10000160;Active;44693 White Oak CT;WY;82001;Cheyenne;UNITED STATES;(307) 633-4323;Customer Services ;Allstate Insurance Company
Heffernan Insurance Brokers;HIB;10000161;Active;60 Academy Ct;MD;21738;Glenwood;UNITED STATES;(410) 442-4238;Customer Services ;Heffernan Insurance Brokers
Invensure Insurance Brokers;IIB;10000162;Active;633 Holly Bush Ct;AL;35007;Alabaster;UNITED STATES;(205) 664-5884;Customer Services ;Invensure Insurance Brokers
Altamonte Insurance Broker;AIB;10000163;Active;94 Watson Dr;NJ;7740;Long Branch;UNITED STATES;(732) 263-0111;Customer Services ;Altamonte Insurance Broker
Pledge Insurance Brokers;PIB;10000164;Active;9820 Russett Wood Cir;NJ;7921;Bedminster;UNITED STATES;(908) 903-1232;Customer Services ;Pledge Insurance Brokers
United Courtage;UC;12753;Active;5599 Lexington Avenue;NY;10015;New York;UNITED STATES;(212) 495-1022;Customer Services ;United Courtage
Life Brokers;LFB;4309;Active;204 Emery St;KS;66109;Kansas City;UNITED STATES;(913) 721-3208;Customer Services ;Life Brokers
